{
  "type": "FeatureCollection",
  "features": [
    {
      "type": "Feature",
      "properties": {
        "norad_id": 66174,
        "name": "HTV-X1",
        "group": "stations",
        "lat": -50.92134228289711,
        "lon": -22.366239432727944,
        "alt_km": 420.14465194676086,
        "timestamp": "2025-12-25T07:00:32.798856+00:00",
        "meta_object_name": "HTV-X1",
        "meta_object_id": "2025-241A",
        "meta_epoch": "2025-12-24T17:30:08.449344",
        "meta_mean_motion": 15.49788781,
        "meta_eccentricity": 0.00031932,
        "meta_inclination": 51.6317,
        "meta_ra_of_asc_node": 83.1022,
        "meta_arg_of_pericenter": 296.2044,
        "meta_mean_anomaly": 63.8616,
        "meta_ephemeris_type": 0,
        "meta_classification_type": "U",
        "meta_norad_cat_id": 66174,
        "meta_element_set_no": 999,
        "meta_rev_at_epoch": 51,
        "meta_bstar": 0.00024880559,
        "meta_mean_motion_dot": 0.00013665,
        "meta_mean_motion_ddot": 0,
        "tle_line1": "1 66174U 25241A   25358.72926446  .00013665  00000+0  24881-3 0  9997",
        "tle_line2": "2 66174  51.6317  83.1022 0003193 296.2044  63.8616 15.49788781   512"
      },
      "geometry": {
        "type": "Point",
        "coordinates": [
          -22.366239432727944,
          -50.92134228289711
        ]
      }
    },
    {
      "type": "Feature",
      "properties": {
        "norad_id": 66515,
        "name": "SZ-21 MODULE",
        "group": "stations",
        "lat": -14.484704103765319,
        "lon": 136.44156245848487,
        "alt_km": 381.7743552995016,
        "timestamp": "2025-12-25T07:00:32.798866+00:00",
        "meta_object_name": "SZ-21 MODULE",
        "meta_object_id": "2025-246C",
        "meta_epoch": "2025-12-24T13:16:51.562848",
        "meta_mean_motion": 15.63097156,
        "meta_eccentricity": 0.00047243,
        "meta_inclination": 41.4769,
        "meta_ra_of_asc_node": 303.9494,
        "meta_arg_of_pericenter": 323.7646,
        "meta_mean_anomaly": 36.2873,
        "meta_ephemeris_type": 0,
        "meta_classification_type": "U",
        "meta_norad_cat_id": 66515,
        "meta_element_set_no": 999,
        "meta_rev_at_epoch": 629,
        "meta_bstar": 0.00031177301,
        "meta_mean_motion_dot": 0.0002901,
        "meta_mean_motion_ddot": 0,
        "tle_line1": "1 66515U 25246C   25358.55337457  .00029010  00000+0  31177-3 0  9997",
        "tle_line2": "2 66515  41.4769 303.9494 0004724 323.7646  36.2873 15.63097156  6295"
      },
      "geometry": {
        "type": "Point",
        "coordinates": [
          136.44156245848487,
          -14.484704103765319
        ]
      }
    },
    {
      "type": "Feature",
      "properties": {
        "norad_id": 66645,
        "name": "SHENZHOU-22",
        "group": "stations",
        "lat": 24.494863678824522,
        "lon": 89.41343208368056,
        "alt_km": 378.9981321637506,
        "timestamp": "2025-12-25T07:00:32.798877+00:00",
        "meta_object_name": "SHENZHOU-22",
        "meta_object_id": "2025-272A",
        "meta_epoch": "2025-12-24T21:11:11.048064",
        "meta_mean_motion": 15.59651715,
        "meta_eccentricity": 0.00082343,
        "meta_inclination": 41.4683,
        "meta_ra_of_asc_node": 302.9604,
        "meta_arg_of_pericenter": 137.936,
        "meta_mean_anomaly": 222.2112,
        "meta_ephemeris_type": 0,
        "meta_classification_type": "U",
        "meta_norad_cat_id": 66645,
        "meta_element_set_no": 999,
        "meta_rev_at_epoch": 26583,
        "meta_bstar": 0.00020600017,
        "meta_mean_motion_dot": 0.00016629,
        "meta_mean_motion_ddot": 0,
        "tle_line1": "1 66645U 25272A   25358.88276676  .00016629  00000+0  20600-3 0  9992",
        "tle_line2": "2 66645  41.4683 302.9604 0008234 137.9360 222.2112 15.59651715265836"
      },
      "geometry": {
        "type": "Point",
        "coordinates": [
          89.41343208368056,
          24.494863678824522
        ]
      }
    },
    {
      "type": "Feature",
      "properties": {
        "norad_id": 66664,
        "name": "SOYUZ-MS 28",
        "group": "stations",
        "lat": -50.921342627072136,
        "lon": -22.366236308403014,
        "alt_km": 420.1446519112542,
        "timestamp": "2025-12-25T07:00:32.798887+00:00",
        "meta_object_name": "SOYUZ-MS 28",
        "meta_object_id": "2025-275A",
        "meta_epoch": "2025-12-24T17:30:08.449344",
        "meta_mean_motion": 15.49788781,
        "meta_eccentricity": 0.00031932,
        "meta_inclination": 51.6317,
        "meta_ra_of_asc_node": 83.1022,
        "meta_arg_of_pericenter": 296.2044,
        "meta_mean_anomaly": 63.8616,
        "meta_ephemeris_type": 0,
        "meta_classification_type": "U",
        "meta_norad_cat_id": 66664,
        "meta_element_set_no": 999,
        "meta_rev_at_epoch": 128,
        "meta_bstar": 0.00024880559,
        "meta_mean_motion_dot": 0.00013665,
        "meta_mean_motion_ddot": 0,
        "tle_line1": "1 66664U 25275A   25358.72926446  .00013665  00000+0  24881-3 0  9998",
        "tle_line2": "2 66664  51.6317  83.1022 0003193 296.2044  63.8616 15.49788781  1281"
      },
      "geometry": {
        "type": "Point",
        "coordinates": [
          -22.366236308403014,
          -50.921342627072136
        ]
      }
    },
    {
      "type": "Feature",
      "properties": {
        "norad_id": 66906,
        "name": "1998-067XS",
        "group": "stations",
        "lat": -9.884222065912208,
        "lon": 72.20155306847053,
        "alt_km": 414.77384513732704,
        "timestamp": "2025-12-25T07:00:32.798897+00:00",
        "meta_object_name": "1998-067XS",
        "meta_object_id": "1998-067XS",
        "meta_epoch": "2025-12-24T12:30:34.892352",
        "meta_mean_motion": 15.51195693,
        "meta_eccentricity": 0.00027903,
        "meta_inclination": 51.6318,
        "meta_ra_of_asc_node": 83.9644,
        "meta_arg_of_pericenter": 262.1551,
        "meta_mean_anomaly": 97.9122,
        "meta_ephemeris_type": 0,
        "meta_classification_type": "U",
        "meta_norad_cat_id": 66906,
        "meta_element_set_no": 999,
        "meta_rev_at_epoch": 344,
        "meta_bstar": 0.00051725581,
        "meta_mean_motion_dot": 0.00030459,
        "meta_mean_motion_ddot": 0,
        "tle_line1": "1 66906U 98067XS  25358.52123718  .00030459  00000+0  51726-3 0  9993",
        "tle_line2": "2 66906  51.6318  83.9644 0002790 262.1551  97.9122 15.51195693  3443"
      },
      "geometry": {
        "type": "Point",
        "coordinates": [
          72.20155306847053,
          -9.884222065912208
        ]
      }
    },
    {
      "type": "Feature",
      "properties": {
        "norad_id": 66907,
        "name": "1998-067XT",
        "group": "stations",
        "lat": 43.808199342811434,
        "lon": 129.44271023749477,
        "alt_km": 403.3437126193876,
        "timestamp": "2025-12-25T07:00:32.798907+00:00",
        "meta_object_name": "1998-067XT",
        "meta_object_id": "1998-067XT",
        "meta_epoch": "2025-12-24T10:39:56.166048",
        "meta_mean_motion": 15.52879993,
        "meta_eccentricity": 0.00038856,
        "meta_inclination": 51.6313,
        "meta_ra_of_asc_node": 84.2012,
        "meta_arg_of_pericenter": 298.2919,
        "meta_mean_anomaly": 61.7678,
        "meta_ephemeris_type": 0,
        "meta_classification_type": "U",
        "meta_norad_cat_id": 66907,
        "meta_element_set_no": 999,
        "meta_rev_at_epoch": 343,
        "meta_bstar": 0.0010726177,
        "meta_mean_motion_dot": 0.00067981,
        "meta_mean_motion_ddot": 0,
        "tle_line1": "1 66907U 98067XT  25358.44440007  .00067981  00000+0  10726-2 0  9992",
        "tle_line2": "2 66907  51.6313  84.2012 0003885 298.2919  61.7678 15.52879993  3433"
      },
      "geometry": {
        "type": "Point",
        "coordinates": [
          129.44271023749477,
          43.808199342811434
        ]
      }
    },
    {
      "type": "Feature",
      "properties": {
        "norad_id": 66908,
        "name": "1998-067XU",
        "group": "stations",
        "lat": 46.69131774740511,
        "lon": 137.15495649710317,
        "alt_km": 402.91476514773603,
        "timestamp": "2025-12-25T07:00:32.798917+00:00",
        "meta_object_name": "1998-067XU",
        "meta_object_id": "1998-067XU",
        "meta_epoch": "2025-12-24T10:38:25.805472",
        "meta_mean_motion": 15.52977314,
        "meta_eccentricity": 0.00038638,
        "meta_inclination": 51.6323,
        "meta_ra_of_asc_node": 84.1936,
        "meta_arg_of_pericenter": 296.7785,
        "meta_mean_anomaly": 63.2809,
        "meta_ephemeris_type": 0,
        "meta_classification_type": "U",
        "meta_norad_cat_id": 66908,
        "meta_element_set_no": 999,
        "meta_rev_at_epoch": 343,
        "meta_bstar": 0.0010585814,
        "meta_mean_motion_dot": 0.00067317,
        "meta_mean_motion_ddot": 0,
        "tle_line1": "1 66908U 98067XU  25358.44335423  .00067317  00000+0  10586-2 0  9995",
        "tle_line2": "2 66908  51.6323  84.1936 0003863 296.7785  63.2809 15.52977314  3438"
      },
      "geometry": {
        "type": "Point",
        "coordinates": [
          137.15495649710317,
          46.69131774740511
        ]
      }
    }
  ]
}